NORAD_CAT_ID,OBJECT_NAME,OBJECT_TYPE,EPOCH,MEAN_MOTION,ECCENTRICITY,INCLINATION,RA_OF_ASC_NODE,ARG_OF_PERICENTER,MEAN_ANOMALY,BSTAR,MEAN_MOTION_DOT,MEAN_MOTION_DDOT,TLE_LINE0,TLE_LINE1,TLE_LINE2,SEMIMAJOR_AXIS,PERIOD,APOGEE,PERIGEE,DECAYED
49132.0,STARLINK-3090,PAYLOAD,2024-03-06 04:08:03,14.98331329,0.0002519,70.0011,343.9374,258.1105,101.9771,3.0821e-05,2.75e-06,0.0,0 STARLINK-3090,1 49132U 21082C   24066.17226324  .00000275  00000-0  30821-4 0  9999,2 49132  70.0011 343.9374 0002519 258.1105 101.9771 14.98331329136102,6950.189,96.107,573.805,570.303,0.0
49132.0,STARLINK-3090,PAYLOAD,2024-03-07 04:10:04,14.98325712,0.0002817,70.0009,341.414,265.4393,94.6444,8.2729e-05,8.94e-06,0.0,0 STARLINK-3090,1 49132U 21082C   24067.17366633  .00000894  00000-0  82729-4 0  9999,2 49132  70.0009 341.4140 0002817 265.4393  94.6444 14.98325712136254,6950.206,96.107,574.029,570.113,0.0
49132.0,STARLINK-3090,PAYLOAD,2024-03-08 04:12:05,14.98333128,0.0002704,70.0009,338.8903,265.6402,94.4448,7.2166e-05,7.68e-06,0.0,0 STARLINK-3090,1 49132U 21082C   24068.17506282  .00000768  00000-0  72166-4 0  9990,2 49132  70.0009 338.8903 0002704 265.6402  94.4448 14.98333128136408,6950.183,96.107,573.928,570.169,0.0
49132.0,STARLINK-3090,PAYLOAD,2024-03-09 04:14:06,14.98327079,0.0002598,70.0009,336.3658,265.2865,94.7997,3.0738e-05,2.74e-06,0.0,0 STARLINK-3090,1 49132U 21082C   24069.17646846  .00000274  00000-0  30738-4 0  9993,2 49132  70.0009 336.3658 0002598 265.2865  94.7997 14.98327079136554,6950.202,96.107,573.873,570.261,0.0
49132.0,STARLINK-3090,PAYLOAD,2024-03-09 10:38:38,14.98331195,0.0002624,70.0008,335.6915,267.5353,92.5506,5.64e-05,5.8e-06,0.0,0 STARLINK-3090,1 49132U 21082C   24069.44350552  .00000580  00000-0  56400-4 0  9993,2 49132  70.0008 335.6915 0002624 267.5353  92.5506 14.98331195136598,6950.189,96.107,573.878,570.23,0.0
49132.0,STARLINK-3090,PAYLOAD,2024-03-10 02:39:58,14.98338723,0.0002792,70.0003,334.0072,266.3056,93.7784,9.855e-05,1.083e-05,0.0,0 STARLINK-3090,1 49132U 21082C   24070.11109660  .00001083  00000-0  98550-4 0  9992,2 49132  70.0003 334.0072 0002792 266.3056  93.7784 14.98338723136699,6950.166,96.106,573.971,570.09,0.0
49132.0,STARLINK-3090,PAYLOAD,2024-03-10 10:40:39,14.98331451,0.0001975,70.0029,333.1646,296.4114,63.6842,3.1046e-05,2.78e-06,0.0,0 STARLINK-3090,1 49132U 21082C   24070.44490623  .00000278  00000-0  31046-4 0  9992,2 49132  70.0029 333.1646 0001975 296.4114  63.6842 14.98331451136743,6950.188,96.107,573.426,570.681,0.0
49132.0,STARLINK-3090,PAYLOAD,2024-03-10 21:53:36,14.98326978,0.0003017,70.0001,331.9871,269.812,90.2693,-5.024e-05,-6.92e-06,0.0,0 STARLINK-3090,1 49132U 21082C   24070.91222706 -.00000692  00000-0 -50240-4 0  9998,2 49132  70.0001 331.9871 0003017 269.8120  90.2693 14.98326978136815,6950.202,96.107,574.164,569.97,0.0
49132.0,STARLINK-3090,PAYLOAD,2024-03-11 02:42:00,14.98330911,0.0002853,70.0003,331.4825,270.5461,89.5371,9.7064e-07,-8.1e-07,0.0,0 STARLINK-3090,1 49132U 21082C   24071.11250379 -.00000081  00000-0  97064-6 0  9996,2 49132  70.0003 331.4825 0002853 270.5461  89.5371 14.98330911136844,6950.19,96.107,574.038,570.072,0.0
49132.0,STARLINK-3090,PAYLOAD,2024-03-12 02:44:01,14.98335975,0.0002913,70.0002,328.9562,264.9928,95.0899,-9.3638e-05,-1.21e-05,0.0,0 STARLINK-3090,1 49132U 21082C   24072.11390198 -.00001210  00000-0 -93638-4 0  9998,2 49132  70.0002 328.9562 0002913 264.9928  95.0899 14.98335975136992,6950.174,96.107,574.064,570.015,0.0
49132.0,STARLINK-3090,PAYLOAD,2024-03-12 10:44:41,14.98335221,0.0002916,70.0001,328.1146,265.1543,94.9283,-7.514e-05,-9.9e-06,0.0,0 STARLINK-3090,1 49132U 21082C   24072.44770105 -.00000990  00000-0 -75140-4 0  9996,2 49132  70.0001 328.1146 0002916 265.1543  94.9283 14.98335221137046,6950.177,96.107,574.068,570.015,0.0
49132.0,STARLINK-3090,PAYLOAD,2024-03-13 02:46:01,14.98331412,0.0002874,70.0,326.4313,268.0141,92.0689,0.00010647,1.178e-05,0.0,0 STARLINK-3090,1 49132U 21082C   24073.11529965  .00001178  00000-0  10647-3 0  9994,2 49132  70.0000 326.4313 0002874 268.0141  92.0689 14.98331412137149,6950.189,96.107,574.051,570.056,0.0
49132.0,STARLINK-3090,PAYLOAD,2024-03-13 10:46:42,14.98339892,0.0002636,70.0002,325.5907,272.5543,87.5314,-0.00010051,-1.292e-05,0.0,0 STARLINK-3090,1 49132U 21082C   24073.44909895 -.00001292  00000-0 -10051-3 0  9992,2 49132  70.0002 325.5907 0002636 272.5543  87.5314 14.98339892137191,6950.162,96.106,573.859,570.195,0.0
49132.0,STARLINK-3090,PAYLOAD,2024-03-13 21:59:38,14.98331759,0.000272,70.0001,324.4128,273.6627,86.4221,4.4839e-05,4.42e-06,0.0,0 STARLINK-3090,1 49132U 21082C   24073.91642177  .00000442  00000-0  44839-4 0  9997,2 49132  70.0001 324.4128 0002720 273.6627  86.4221 14.98331759137269,6950.187,96.107,573.943,570.162,0.0
49132.0,STARLINK-3090,PAYLOAD,2024-03-14 02:48:02,14.98333798,0.0002702,70.0002,323.9078,273.7279,86.3571,6.6605e-05,7.02e-06,0.0,0 STARLINK-3090,1 49132U 21082C   24074.11669962  .00000702  00000-0  66605-4 0  9995,2 49132  70.0002 323.9078 0002702 273.7279  86.3571 14.98333798137297,6950.181,96.107,573.924,570.168,0.0
49132.0,STARLINK-3090,PAYLOAD,2024-03-14 22:01:39,14.98333554,0.0002663,70.0003,321.8876,265.1061,94.9794,2.5155e-05,2.07e-06,0.0,0 STARLINK-3090,1 49132U 21082C   24074.91781873  .00000207  00000-0  25155-4 0  9994,2 49132  70.0003 321.8876 0002663 265.1061  94.9794 14.98333554137417,6950.182,96.107,573.898,570.196,0.0
49132.0,STARLINK-3090,PAYLOAD,2024-03-15 02:50:03,14.98332072,0.0002601,70.0003,321.3831,263.5976,96.4887,2.1045e-05,1.58e-06,0.0,0 STARLINK-3090,1 49132U 21082C   24075.11809933  .00000158  00000-0  21045-4 0  9994,2 49132  70.0003 321.3831 0002601 263.5976  96.4887 14.98332072137449,6950.186,96.107,573.859,570.244,0.0
49132.0,STARLINK-3090,PAYLOAD,2024-03-15 22:03:42,14.98261983,0.0002965,70.0004,319.3631,254.075,106.0083,0.0011555,0.00013697,0.0,0 STARLINK-3090,1 49132U 21082C   24075.91924105  .00013697  00000-0  11555-2 0  9996,2 49132  70.0004 319.3631 0002965 254.0750 106.0083 14.98261983137564,6950.403,96.111,574.329,570.207,0.0
49132.0,STARLINK-3090,PAYLOAD,2024-03-16 01:15:57,14.9832425,0.0002502,70.0004,319.0269,255.5704,104.5177,-5.2195e-05,-7.16e-06,0.0,0 STARLINK-3090,1 49132U 21082C   24076.05274715 -.00000716  00000-0 -52195-4 0  9994,2 49132  70.0004 319.0269 0002502 255.5704 104.5177 14.98324250137586,6950.211,96.107,573.815,570.337,0.0
49132.0,STARLINK-3090,PAYLOAD,2024-03-16 20:29:33,14.98332748,0.0002593,69.9999,317.0066,259.1184,100.9684,3.7462e-05,3.54e-06,0.0,0 STARLINK-3090,1 49132U 21082C   24076.85385976  .00000354  00000-0  37462-4 0  9990,2 49132  69.9999 317.0066 0002593 259.1184 100.9684 14.98332748137709,6950.184,96.107,573.852,570.247,0.0
49132.0,STARLINK-3090,PAYLOAD,2024-03-16 22:05:41,14.98332692,0.0002596,70.0,316.8383,259.34,100.7467,3.6396e-05,3.41e-06,0.0,0 STARLINK-3090,1 49132U 21082C   24076.92061978  .00000341  00000-0  36396-4 0  9992,2 49132  70.0000 316.8383 0002596 259.3400 100.7467 14.98332692137716,6950.185,96.107,573.854,570.245,0.0
49132.0,STARLINK-3090,PAYLOAD,2024-03-17 14:07:02,14.98326397,0.0002642,70.0,315.1543,261.2349,98.8511,7.2732e-05,7.75e-06,0.0,0 STARLINK-3090,1 49132U 21082C   24077.58822260  .00000775  00000-0  72732-4 0  9999,2 49132  70.0000 315.1543 0002642 261.2349  98.8511 14.98326397137815,6950.204,96.107,573.905,570.233,0.0
49132.0,STARLINK-3090,PAYLOAD,2024-03-17 20:31:34,14.98328775,0.0002687,69.9998,314.4807,259.4001,100.6855,3.8478e-05,3.66e-06,0.0,0 STARLINK-3090,1 49132U 21082C   24077.85526246  .00000366  00000-0  38478-4 0  9999,2 49132  69.9998 314.4807 0002687 259.4001 100.6855 14.98328775137855,6950.197,96.107,573.929,570.194,0.0
49132.0,STARLINK-3090,PAYLOAD,2024-03-17 22:07:42,14.98328277,0.0002703,69.9998,314.3126,260.0853,100.0001,3.4403e-05,3.18e-06,0.0,0 STARLINK-3090,1 49132U 21082C   24077.92202297  .00000318  00000-0  34403-4 0  9995,2 49132  69.9998 314.3126 0002703 260.0853 100.0001 14.98328277137865,6950.198,96.107,573.942,570.185,0.0
49132.0,STARLINK-3090,PAYLOAD,2024-03-18 01:19:58,14.98328047,0.0002785,69.9996,313.976,263.3563,96.728,3.4383e-05,3.17e-06,0.0,0 STARLINK-3090,1 49132U 21082C   24078.05554333  .00000317  00000-0  34383-4 0  9997,2 49132  69.9996 313.9760 0002785 263.3563  96.7280 14.98328047137883,6950.199,96.107,574.0,570.128,0.0
49132.0,STARLINK-3090,PAYLOAD,2024-03-18 20:33:35,14.98333415,0.0002852,69.9994,311.9564,264.2368,95.8466,-6.6838e-06,-1.73e-06,0.0,0 STARLINK-3090,1 49132U 21082C   24078.85666084 -.00000173  00000-0 -66838-5 0  9995,2 49132  69.9994 311.9564 0002852 264.2368  95.8466 14.98333415138005,6950.182,96.107,574.03,570.065,0.0
49132.0,STARLINK-3090,PAYLOAD,2024-03-18 22:09:43,14.98335574,0.0002855,69.9994,311.7878,263.9965,96.0869,1.5396e-05,9.1e-07,0.0,0 STARLINK-3090,1 49132U 21082C   24078.92341818  .00000091  00000-0  15396-4 0  9997,2 49132  69.9994 311.7878 0002855 263.9965  96.0869 14.98335574138012,6950.176,96.107,574.025,570.056,0.0
49132.0,STARLINK-3090,PAYLOAD,2024-03-19 01:21:59,14.98336775,0.0002849,69.9994,311.4513,264.0892,95.9942,2.8316e-05,2.45e-06,0.0,0 STARLINK-3090,1 49132U 21082C   24079.05693654  .00000245  00000-0  28316-4 0  9997,2 49132  69.9994 311.4513 0002849 264.0892  95.9942 14.98336775138035,6950.172,96.107,574.017,570.057,0.0
49132.0,STARLINK-3090,PAYLOAD,2024-03-19 22:11:43,14.98338447,0.000295,69.999,309.2631,264.6535,95.4287,0.00011084,1.23e-05,0.0,0 STARLINK-3090,1 49132U 21082C   24079.92481018  .00001230  00000-0  11084-3 0  9990,2 49132  69.9990 309.2631 0002950 264.6535  95.4287 14.98338447138169,6950.167,96.106,574.082,569.981,0.0
49132.0,STARLINK-3090,PAYLOAD,2024-03-20 01:23:59,14.9833986,0.000295,69.9991,308.9267,264.6277,95.4545,0.00012182,1.361e-05,0.0,0 STARLINK-3090,1 49132U 21082C   24080.05832834  .00001361  00000-0  12182-3 0  9997,2 49132  69.9991 308.9267 0002950 264.6277  95.4545 14.98339860138183,6950.162,96.106,574.078,569.977,0.0
